#aV2012  8  5  0  0  0.00000000     288 DD+AD WGS84 FIT  NGA
## 1700      0.00000000   300.00000000 56144 0.0000000000000
+   31     1  2  3  4  5  6  7  8  9 10 11 12 13 14 15 16 17
+         18 19 20 21 22 23 25 26 27 28 29 30 31 32  0  0  0
+          0  0  0  0  0  0  0  0  0  0  0  0  0  0  0  0  0
+          0  0  0  0  0  0  0  0  0  0  0  0  0  0  0  0  0
+          0  0  0  0  0  0  0  0  0  0  0  0  0  0  0  0  0
++         2  2  2  2  2  2  2  2  2  2  2  2  2  2  2  2  2
++         2  2  2  2  2  2  2  2  2  2  2  2  2  2  2  0  0
++         0  0  0  0  0  0  0  0  0  0  0  0  0  0  0  0  0
++         0  0  0  0  0  0  0  0  0  0  0  0  0  0  0  0  0
++         0  0  0  0  0  0  0  0  0  0  0  0  0  0  0  0  0
%c cc cc ccc ccc cccc cccc cccc cccc ccccc ccccc ccccc ccccc
%c cc cc ccc ccc cccc cccc cccc cccc ccccc ccccc ccccc ccccc
%f  0.0000000  0.000000000  0.00000000000  0.000000000000000
%f  0.0000000  0.000000000  0.00000000000  0.000000000000000
%i    0    0    0    0      0      0      0      0         0
%i    0    0    0    0      0      0      0      0         0
/*      NGA, ST. LOUIS,MO.                                  
/*   EPHEMERIS COMPUTED FROM  1 DAYS OF DATA
/*   EPOCHA SMOOTHER  
/* CCCCCCCCCCCCCCCCCCCCCCCCCCCCCCCCCCCCCCCCCCCCCCCCCCCCCCCCC
*  2012  8  5 22  0  0.00000000                                                 
P  1  16786.206460   2934.329838  20374.625053    268.457091                    
V  1   9343.486776  24157.505703 -11126.156097      0.015176                    
P  2 -13860.575820 -22458.880642  -4706.260460    399.004550                    
V  2    259.178771  -6785.279967  30183.023901      0.011500                    
P  3  19330.949328  10987.161473 -15204.924017     84.469005                    
V  3 -18399.030097   2621.385517 -21950.134976      0.048812                    
P  4  -4919.319605 -24845.887653   7188.263886    265.522838                    
V  4   7123.294203   7362.819591  29594.885584      0.113703                    
P  5  -9840.740271 -12346.345608 -21362.439727   -341.061726                    
V  5  16678.117446 -21415.704972   4826.342129     -0.033202                    
P  6  15051.051015  13557.444828 -17225.501303     -3.984673                    
V  6 -22114.228869    576.463968 -18434.876537     -0.064154                    
P  7  10796.411493 -11586.317535 -21251.099745    107.848099                    
V  7  10894.494072  24765.986202  -8227.349730      0.039387                    
P  8   2476.874222 -22138.648901 -13915.475965      1.906094                    
V  8   6967.566215  16650.196125 -25683.059315      0.001089                    
P  9 -16824.935917  -8139.224390  18292.789914    176.670341                    
V  9  -8576.396390 -22824.775442 -17575.945715      0.026227                    
P 10   5629.513949 -22425.830474 -12960.810227    -47.233042                    
V 10  12259.737135 -11031.065341  25302.678226     -0.012974                    
P 11  20996.873945   7484.004409  14262.595417   -289.169494                    
V 11   9167.729476  16905.681527 -21449.551573     -0.039666                    
P 12 -19094.025861   5086.837512  17636.722409     83.851441                    
V 12  12807.913439 -18499.008484  19368.846335      0.020593                    
P 13  19939.303124  -6790.311159 -16384.141766    189.901700                    
V 13  19715.053267   5580.676220  21755.811394     -0.025172                    
P 14  -3044.726999  14613.875522  22154.146842    209.145454                    
V 14 -27130.096064  -5216.137852   -438.077334      0.011149                    
P 15 -26266.760683  -4130.370753  -2182.191863    -93.348354                    
V 15   3042.204536  -2848.495400 -31091.527976     -0.004948                    
P 16   8843.051597  12238.380215 -21824.771158   -242.988668                    
V 16 -17916.755493  21099.240404   4878.752117     -0.009653                    
P 17   3626.029041 -14831.424894  21905.751021    107.458037                    
V 17  27012.090649   4503.595475  -1667.565516     -0.031252                    
P 18 -16788.175708  20240.773460  -1463.768424    208.687935                    
V 18  -1896.511078  -4373.452799 -31188.451525      0.018071                    
P 19  25251.293309   8086.358863  -3806.103500   -291.567723                    
V 19  -5106.497013   1394.398579 -31016.985350     -0.036251                    
P 20  19761.337875  -9072.835640  15050.219760     65.771601                    
V 20  -8671.696104  17690.066830  21889.952811      0.006264                    
P 21  -9058.349513  15162.849169 -19163.321821   -241.286832                    
V 21 -11770.490357 -22931.310144 -12828.329783     -0.024571                    
P 22  -6968.592499  23031.557771  11289.617829    146.266817                    
V 22 -11286.649720   9209.487512 -26325.109291      0.004850                    
P 23  26142.712232   -505.749208  -5673.179192    178.067054                    
V 23   6799.373515   3385.610862  30388.753003     -0.038983                    
P 25 -18908.147571  17010.002120   7500.702699     38.964436                    
V 25   3701.869970  -9179.058237  30042.798764      0.009557                    
P 26 -19359.202175 -13230.274507 -13433.135446   -324.158834                    
V 26  15790.354557   2021.790866 -25611.091337      0.120785                    
P 27 -17831.791522 -12280.320598  16332.069642    416.963436                    
V 27  -7380.894250 -17939.910975 -21881.672493      0.042235                    
P 28  10277.796938 -22573.784137   9742.304376    172.266343                    
V 28   8999.913211  -7626.809383 -29027.634899      0.038586                    
P 29 -22922.852942   4891.660640 -12390.806639    341.103712                    
V 29 -15246.961611  -4853.904246  26208.470074      0.039835                    
P 30   1837.442329  20382.727354 -17300.262929   -344.024264                    
V 30 -12382.024788  17362.964118  19544.970765     -0.249761                    
P 31   6046.454259  25129.078204   5712.299545    265.477578                    
V 31  -4750.497688  -5677.603889  31257.299270      0.026274                    
P 32  17623.430251   1586.087522  19859.318356   -473.289649                    
V 32 -15573.466972  19566.923749  12863.580154     -0.043166                    
EOF
